NORAD_CAT_ID,OBJECT_NAME,OBJECT_TYPE,EPOCH,MEAN_MOTION,ECCENTRICITY,INCLINATION,RA_OF_ASC_NODE,ARG_OF_PERICENTER,MEAN_ANOMALY,BSTAR,MEAN_MOTION_DOT,MEAN_MOTION_DDOT,TLE_LINE0,TLE_LINE1,TLE_LINE2,SEMIMAJOR_AXIS,PERIOD,APOGEE,PERIGEE,DECAYED
53968.0,STARLINK-4629,PAYLOAD,2023-10-15 01:42:17,15.08825201,0.0001567,53.2179,199.3341,89.738,270.3791,-0.00026782,-4.546e-05,0.0,0 STARLINK-4629,1 53968U 22125E   23288.07104163 -.00004546  00000-0 -26782-3 0  9997,2 53968  53.2179 199.3341 0001567  89.7380 270.3791 15.08825201 57052,6917.926,95.438,540.875,538.707,0.0
53968.0,STARLINK-4629,PAYLOAD,2023-10-15 03:17:41,15.08827068,0.0001723,53.2185,199.0363,91.1549,268.9641,-0.00021257,-3.668e-05,0.0,0 STARLINK-4629,1 53968U 22125E   23288.13728160 -.00003668  00000-0 -21257-3 0  9999,2 53968  53.2185 199.0363 0001723  91.1549 268.9641 15.08827068 56990,6917.92,95.438,540.977,538.593,0.0
53968.0,STARLINK-4629,PAYLOAD,2023-10-15 22:22:18,15.08844055,0.0001393,53.2166,195.4683,82.8319,277.2831,0.00018981,2.735e-05,0.0,0 STARLINK-4629,1 53968U 22125E   23288.93215664  .00002735  00000-0  18981-3 0  9999,2 53968  53.2166 195.4683 0001393  82.8319 277.2831 15.08844055 57113,6917.868,95.437,540.697,538.769,0.0
53968.0,STARLINK-4629,PAYLOAD,2023-10-16 01:33:04,15.08851948,0.0001472,53.2162,194.8732,81.6167,278.4992,0.0006442,9.983e-05,0.0,0 STARLINK-4629,1 53968U 22125E   23289.06463737  .00009983  00000-0  64420-3 0  9991,2 53968  53.2162 194.8732 0001472  81.6167 278.4992 15.08851948 57203,6917.844,95.437,540.727,538.691,0.0
53968.0,STARLINK-4629,PAYLOAD,2023-10-16 11:05:23,15.08851919,0.0001362,53.2159,193.0895,87.4554,272.6595,0.00061965,9.591e-05,0.0,0 STARLINK-4629,1 53968U 22125E   23289.46207814  .00009591  00000-0  61965-3 0  9993,2 53968  53.2159 193.0895 0001362  87.4554 272.6595 15.08851919 57261,6917.844,95.437,540.651,538.767,0.0
53968.0,STARLINK-4629,PAYLOAD,2023-10-16 20:37:42,15.08845697,0.0001467,53.2156,191.306,85.666,274.4499,0.00031011,4.652e-05,0.0,0 STARLINK-4629,1 53968U 22125E   23289.85951857  .00004652  00000-0  31011-3 0  9991,2 53968  53.2156 191.3060 0001467  85.6660 274.4499 15.08845697 57255,6917.863,95.437,540.743,538.713,0.0
53968.0,STARLINK-4629,PAYLOAD,2023-10-17 10:56:10,15.08835874,0.0001301,53.2158,188.6285,86.6383,273.4758,-0.00013582,-2.449e-05,0.0,0 STARLINK-4629,1 53968U 22125E   23290.45567734 -.00002449  00000-0 -13582-3 0  9993,2 53968  53.2158 188.6285 0001301  86.6383 273.4758 15.08835874 57416,6917.893,95.438,540.658,538.858,0.0
53968.0,STARLINK-4629,PAYLOAD,2023-10-17 23:39:15,15.08841537,0.0001091,53.2162,186.2493,78.0697,282.0418,9.9244e-05,1.292e-05,0.0,0 STARLINK-4629,1 53968U 22125E   23290.98559449  .00001292  00000-0  99244-4 0  9998,2 53968  53.2162 186.2493 0001091  78.0697 282.0418 15.08841537 57495,6917.876,95.437,540.495,538.986,0.0
53968.0,STARLINK-4629,PAYLOAD,2023-10-18 17:08:29,15.08846761,0.000148,53.2154,182.9766,86.6517,273.4644,0.00038855,5.902e-05,0.0,0 STARLINK-4629,1 53968U 22125E   23291.71423511  .00005902  00000-0  38855-3 0  9992,2 53968  53.2154 182.9766 0001480  86.6517 273.4644 15.08846761 57534,6917.86,95.437,540.749,538.701,0.0
53968.0,STARLINK-4629,PAYLOAD,2023-10-19 04:16:11,15.08867597,0.0001461,53.2168,180.8968,86.3206,273.7953,0.00097167,0.00015222,0.0,0 STARLINK-4629,1 53968U 22125E   23292.17790902  .00015222  00000-0  97167-3 0  9991,2 53968  53.2168 180.8968 0001461  86.3206 273.7953 15.08867597 57672,6917.796,95.436,540.672,538.65,0.0
53968.0,STARLINK-4629,PAYLOAD,2023-10-19 16:59:16,15.0885077,0.0001367,53.2154,178.5181,81.2659,278.8488,0.00055018,8.482e-05,0.0,0 STARLINK-4629,1 53968U 22125E   23292.70783174  .00008482  00000-0  55018-3 0  9992,2 53968  53.2154 178.5181 0001367  81.2659 278.8488 15.08850770 57752,6917.847,95.437,540.658,538.767,0.0
53968.0,STARLINK-4629,PAYLOAD,2023-10-20 02:31:35,15.08863262,0.0001406,53.2162,176.7338,82.503,277.6122,0.00087661,0.000137,0.0,0 STARLINK-4629,1 53968U 22125E   23293.10526690  .00013700  00000-0  87661-3 0  9993,2 53968  53.2162 176.7338 0001406  82.5030 277.6122 15.08863262 57747,6917.809,95.436,540.647,538.702,0.0
53968.0,STARLINK-4629,PAYLOAD,2023-10-20 16:50:04,15.08828229,0.0001063,53.217,174.058,83.8564,276.2549,0.00032807,4.936e-05,0.0,0 STARLINK-4629,1 53968U 22125E   23293.70143734  .00004936  00000-0  32807-3 0  9996,2 53968  53.2170 174.0580 0001063  83.8564 276.2549 15.08828229 57901,6917.916,95.438,540.517,539.046,0.0
53968.0,STARLINK-4629,PAYLOAD,2023-10-20 21:36:13,15.08828639,0.0001597,53.2174,173.1659,103.8336,256.2834,0.00055559,8.563e-05,0.0,0 STARLINK-4629,1 53968U 22125E   23293.90015947  .00008563  00000-0  55559-3 0  9991,2 53968  53.2174 173.1659 0001597 103.8336 256.2834 15.08828639 57869,6917.915,95.438,540.885,538.675,0.0
53968.0,STARLINK-4629,PAYLOAD,2023-10-21 08:43:55,15.08844567,0.0001339,53.216,171.0838,98.7141,261.4003,0.0010441,0.0001637,0.0,0 STARLINK-4629,1 53968U 22125E   23294.36384046  .00016370  00000-0  10441-2 0  9996,2 53968  53.2160 171.0838 0001339  98.7141 261.4003 15.08844567 57932,6917.866,95.437,540.658,538.805,0.0
53968.0,STARLINK-4629,PAYLOAD,2023-10-21 23:02:23,15.08861176,0.0001368,53.2155,168.4083,99.8655,260.2491,0.00097554,0.00015281,0.0,0 STARLINK-4629,1 53968U 22125E   23294.95999522  .00015281  00000-0  97554-3 0  9993,2 53968  53.2155 168.4083 0001368  99.8655 260.2491 15.08861176 58026,6917.816,95.436,540.627,538.734,0.0
53968.0,STARLINK-4629,PAYLOAD,2023-10-22 08:34:42,15.08855847,0.000122,53.2146,166.6235,79.2703,280.8427,0.00039043,5.934e-05,0.0,0 STARLINK-4629,1 53968U 22125E   23295.35743376  .00005934  00000-0  39043-3 0  9995,2 53968  53.2146 166.6235 0001220  79.2703 280.8427 15.08855847 58157,6917.832,95.437,540.541,538.853,0.0
53968.0,STARLINK-4629,PAYLOAD,2023-10-22 18:07:01,15.08822902,0.0001467,53.2154,164.8396,86.5442,273.5718,-0.0005149,-8.469e-05,0.0,0 STARLINK-4629,1 53968U 22125E   23295.75488163 -.00008469  00000-0 -51490-3 0  9997,2 53968  53.2154 164.8396 0001467  86.5442 273.5718 15.08822902 58213,6917.933,95.439,540.813,538.783,0.0
53968.0,STARLINK-4629,PAYLOAD,2023-10-22 21:17:48,15.0882766,0.0001349,53.2153,164.2454,84.7308,275.3838,-9.1906e-05,-1.75e-05,0.0,0 STARLINK-4629,1 53968U 22125E   23295.88736268 -.00001750  00000-0 -91906-4 0  9996,2 53968  53.2153 164.2454 0001349  84.7308 275.3838 15.08827660 58164,6917.918,95.438,540.716,538.85,0.0
53968.0,STARLINK-4629,PAYLOAD,2023-10-23 08:25:30,15.08831745,0.0001283,53.2151,162.1643,85.2573,274.8566,0.00085364,0.00013321,0.0,0 STARLINK-4629,1 53968U 22125E   23296.35104854  .00013321  00000-0  85364-3 0  9994,2 53968  53.2151 162.1643 0001283  85.2573 274.8566 15.08831745 58303,6917.906,95.438,540.658,538.883,0.0
53968.0,STARLINK-4629,PAYLOAD,2023-10-23 21:08:35,15.08847347,0.0001309,53.2154,159.7849,82.8581,277.256,0.0010557,0.00016557,0.0,0 STARLINK-4629,1 53968U 22125E   23296.88096961  .00016557  00000-0  10557-2 0  9996,2 53968  53.2154 159.7849 0001309  82.8581 277.2560 15.08847347 58314,6917.858,95.437,540.628,538.817,0.0
53968.0,STARLINK-4629,PAYLOAD,2023-10-24 08:16:17,15.08851482,0.0001331,53.2154,157.7032,82.3211,277.7933,0.00068357,0.00010611,0.0,0 STARLINK-4629,1 53968U 22125E   23297.34464742  .00010611  00000-0  68357-3 0  9991,2 53968  53.2154 157.7032 0001331  82.3211 277.7933 15.08851482 58387,6917.845,95.437,540.631,538.79,0.0
53968.0,STARLINK-4629,PAYLOAD,2023-10-25 00:10:08,15.08860513,0.0001332,53.2155,154.7294,83.1016,277.0127,0.00065482,0.00010155,0.0,0 STARLINK-4629,1 53968U 22125E   23298.00704155  .00010155  00000-0  65482-3 0  9999,2 53968  53.2155 154.7294 0001332  83.1016 277.0127 15.08860513 58550,6917.818,95.436,540.604,538.761,0.0
53968.0,STARLINK-4629,PAYLOAD,2023-10-26 00:00:55,15.08853952,0.0001256,53.2162,150.2679,89.6617,270.4519,0.00036944,5.599e-05,0.0,0 STARLINK-4629,1 53968U 22125E   23299.00063880  .00005599  00000-0  36944-3 0  9990,2 53968  53.2162 150.2679 0001256  89.6617 270.4519 15.08853952 58707,6917.838,95.437,540.572,538.834,0.0
53968.0,STARLINK-4629,PAYLOAD,2023-10-26 19:05:32,15.08845656,0.0001517,53.2167,146.6977,71.7857,288.33,0.00038882,5.906e-05,0.0,0 STARLINK-4629,1 53968U 22125E   23299.79552075  .00005906  00000-0  38882-3 0  9990,2 53968  53.2167 146.6977 0001517  71.7857 288.3300 15.08845656 58821,6917.863,95.437,540.778,538.679,0.0
53968.0,STARLINK-4629,PAYLOAD,2023-10-26 22:16:19,15.08849208,0.0001406,53.2161,146.104,88.6847,271.4307,0.00049966,7.675e-05,0.0,0 STARLINK-4629,1 53968U 22125E   23299.92799915  .00007675  00000-0  49966-3 0  9991,2 53968  53.2161 146.1040 0001406  88.6847 271.4307 15.08849208 58775,6917.852,95.437,540.69,538.745,0.0
53968.0,STARLINK-4629,PAYLOAD,2023-10-27 14:10:10,15.08849485,0.00013,53.2176,143.132,97.1128,263.0012,0.00035554,5.376e-05,0.0,0 STARLINK-4629,1 53968U 22125E   23300.59039905  .00005376  00000-0  35554-3 0  9997,2 53968  53.2176 143.1320 0001300  97.1128 263.0012 15.08849485 58877,6917.851,95.437,540.616,538.817,0.0
53968.0,STARLINK-4629,PAYLOAD,2023-10-27 20:31:42,15.08853455,0.0001134,53.2174,141.9429,90.134,269.9782,0.00046949,7.195e-05,0.0,0 STARLINK-4629,1 53968U 22125E   23300.85535744  .00007195  00000-0  46949-3 0  9999,2 53968  53.2174 141.9429 0001134  90.1340 269.9782 15.08853455 58988,6917.839,95.437,540.489,538.92,0.0
53968.0,STARLINK-4629,PAYLOAD,2023-10-28 06:04:01,15.08842778,0.0001793,53.2171,140.1561,89.2991,270.8207,0.00010131,1.325e-05,0.0,0 STARLINK-4629,1 53968U 22125E   23301.25279871  .00001325  00000-0  10131-3 0  9993,2 53968  53.2171 140.1561 0001793  89.2991 270.8207 15.08842778 59042,6917.872,95.437,540.977,538.497,0.0
53968.0,STARLINK-4629,PAYLOAD,2023-10-28 14:00:57,15.08838667,0.0002153,53.2157,138.6713,94.2862,265.8376,0.00025874,3.832e-05,0.0,0 STARLINK-4629,1 53968U 22125E   23301.58400143  .00003832  00000-0  25874-3 0  9992,2 53968  53.2157 138.6713 0002153  94.2862 265.8376 15.08838667 59022,6917.884,95.438,541.239,538.26,0.0
